SL-8 R/B                
1 15483U 85006B   26196.96889560  .00000119  00000+0  48056-4 0  9992
2 15483  74.0454  25.0972 0019256 268.0412 201.3692 14.37845580172466
SL-12 R/B(2)            
1 15772U 85042D   26196.93410285  .00000028  00000+0  34135-4 0  9996
2 15772  71.1066 176.7803 0037334 285.1003 141.4328 14.22010991132622
SL-14 R/B               
1 15945U 85069B   26196.57517674  .00000215  00000+0  21391-4 0  9995
2 15945  82.5262 264.6689 0020062 126.1164 234.1914 14.86535262191831
SL-16 R/B               
1 16182U 85097B   26196.52201003  .00000167  00000+0  10757-3 0  9990
2 16182  71.0007 231.4247 0005658  51.0311  59.0637 14.16612922105339
SL-14 R/B               
1 16496U 86006B   26196.92033719  .00000239  00000+0  22571-4 0  9998
2 16496  82.5283 139.0753 0075528 206.4327 153.3030 14.86968642168267
COSMOS 1743             
1 16719U 86034A   26196.73165927  .00043247  00000+0  36371-3 0  9991
2 16719  82.5282 298.3228 0005393 175.2370 184.8944 15.69664907200263
SL-14 R/B               
1 16792U 86046B   26196.84439505  .00000230  00000+0  23525-4 0  9996
2 16792  82.4839 319.0973 0023582 160.9114 199.2992 14.85690845145433
SL-14 R/B               
1 16882U 86055B   26196.91277220  .00000210  00000+0  21327-4 0  9994
2 16882  82.5204   6.1216 0017309 267.6789 205.7872 14.85740566138402
AJISAI (EGS)            
1 16908U 86061A   26196.97114394 -.00000078  00000+0  13274-3 0  9992
2 16908  50.0102  58.8855 0011081 253.8920 200.2463 12.44516687483975
SL-14 R/B               
1 17567U 87024B   26196.89853475  .00000224  00000+0  22603-4 0  9994
2 17567  82.5298 332.2629 0017877 191.3958 168.6856 14.86231986107179
COSMOS 1833             
1 17589U 87027A   26196.91950671  .00000074  00000+0  65101-4 0  9993
2 17589  70.9212  56.4778 0024282   7.5382 352.6099 14.13066813 28437
SL-16 R/B               
1 17590U 87027B   26196.87326885  .00000136  00000+0  91150-4 0  9996
2 17590  71.0033   6.3769 0007143 280.9186  79.1134 14.17173655 33504
SL-14 R/B               
1 17912U 87038B   26196.95953168  .00000210  00000+0  21395-4 0  9992
2 17912  82.5013 175.9700 0020848  99.8575 260.4996 14.85461771 98271
COSMOS 1844             
1 17973U 87041A   26196.88758744  .00000060  00000+0  56352-4 0  9992
2 17973  70.8998 123.7694 0031288 194.2856 165.7385 14.14580923 21712
SL-14 R/B               
1 18153U 87055B   26196.50966260  .00000203  00000+0  20505-4 0  9991
2 18153  82.4971 228.5287 0019397 314.0050  45.9567 14.85727162 88912
COSMOS 1867             
1 18187U 87060A   26196.70631790 -.00000071  00000+0  11161-4 0  9995
2 18187  65.0119 308.1886 0017162 282.0240  77.8921 14.31518536 38268
SL-14 R/B               
1 18749U 88001B   26196.17693202  .00000200  00000+0  20232-4 0  9994
2 18749  82.5120  75.4399 0018157 171.8783 188.2731 14.85626773 60952
COSMOS 1933             
1 18958U 88020A   26196.89434975  .00001866  00000+0  87934-4 0  9997
2 18958  82.5141 124.0058 0005914 105.5346 254.6541 15.18890991 69684
SL-3 R/B                
1 19046U 88032B   26196.92792632  .00002038  00000+0  94239-4 0  9998
2 19046  97.5273 179.9461 0026564 143.2561 217.0502 15.21034699 71596
SL-16 R/B               
1 19120U 88039B   26196.93984768 -.00000057  00000+0 -42225-5 0  9992
2 19120  71.0126 157.3604 0020569 148.1985 212.0387 14.19631394976585
COSMOS 1953             
1 19210U 88050A   26196.92302634  .00003915  00000+0  13203-3 0  9996
2 19210  82.5059  29.0449 0011469  37.6442 322.5599 15.30343243 57385
SL-8 R/B                
1 19257U 88053B   26196.51818384  .00000121  00000+0  47685-4 0  9997
2 19257  74.0458 236.8337 0019744  22.2710  83.1516 14.38978369994986
COSMOS 1975             
1 19573U 88093A   26196.87486997  .00003422  00000+0  11762-3 0  9995
2 19573  82.5199 348.8348 0012510  80.3706 279.8947 15.29666698 38995
SL-14 R/B               
1 19574U 88093B   26196.77187124  .00000188  00000+0  18801-4 0  9993
2 19574  82.5316 281.8106 0019973 338.3546 142.1508 14.85760262 20037
SL-16 R/B               
1 19650U 88102B   26196.54150134 -.00000088  00000+0 -20220-4 0  9994
2 19650  70.9977 242.4784 0014282 185.0061 175.0921 14.16166607944999
INTERCOSMOS 24          
1 20261U 89080A   26196.92476442  .00000125  00000+0  32728-4 0  9991
2 20261  82.6050  20.9393 1187149 355.2528   3.8050 12.59692197682947
SL-14 R/B               
1 20262U 89080C   26196.16255293  .00000072  00000+0  20996-4 0  9992
2 20262  82.5934  91.3331 1228701 253.3658  92.9270 12.50578472676085
DELTA 1 R/B             
1 20323U 89089B   26196.77384192  .00000128  00000+0  40122-4 0  9992
2 20323  97.0635  23.7574 0070635  78.1906 282.7204 14.50748041914308
ARIANE 40 R/B           
1 20443U 90005H   26196.74324380  .00000099  00000+0  44804-4 0  9993
2 20443  98.2945 253.4692 0010305 172.4036 187.7311 14.39940851911233
DELTA 2 R/B(1)          
1 20453U 90008B   26196.90959760  .00081052  00000+0  49383-3 0  9995
2 20453  35.5990  42.8176 0058633  22.8481 337.4852 15.73712050946221
